NUVIEW BRAVO            
1 62457U 24252D   26154.47916912 -.00000203  00000+0  00000+0 0  9990
2 62457   0.0753 137.8768 0001996 335.8772 227.5746  1.00270889  3653
THURAYA-4               
1 62483U 25001A   26155.22891902  .00000151  00000+0  00000+0 0  9998
2 62483   0.0279  64.2599 0000203  41.4223 273.7272  1.00272936  4047
SHIJIAN-25 (SJ-25)      
1 62485U 25002A   26154.73046222 -.00000339  00000+0  00000+0 0  9992
2 62485   5.0812  61.2456 0051546 172.8146  48.3391  1.00281646  5222
TJS-14                  
1 62804U 25017A   26155.14094786  .00000127  00000+0  00000+0 0  9991
2 62804   0.8127 294.7099 0000505 271.6919 115.3105  1.00269870  5144
SPAINSAT NG I           
1 62852U 25021A   26155.14302787  .00000163  00000+0  00000+0 0  9992
2 62852   0.0167 329.7714 0000212 115.8748 247.4441  1.00271232  3851
QZS-6 (MICHIBIKI-6)     
1 62876U 25023A   26155.17525036 -.00000220  00000+0  00000+0 0  9992
2 62876   0.0196  27.3438 0002593  49.4967 329.3335  1.00268643  4813
ZHONGXING-10R           
1 63075U 25036A   26155.08791670 -.00000340  00000+0  00000+0 0  9990
2 63075   0.0526 254.1919 0003304 244.4420 256.0983  1.00272552  4828
TJS-15                  
1 63157U 25045A   26154.73236772 -.00000253  00000+0  00000+0 0  9992
2 63157   0.2813  85.2729 0005568 299.9874 224.9861  1.00270021  4620
TIANLIAN 2-04           
1 63361U 25062A   26154.93926664 -.00000123  00000+0  00000+0 0  9992
2 63361   4.4090 274.6299 0031424  10.9091  25.0606  1.00270749  4475
TJS-16                  
1 63397U 25064A   26154.66338115 -.00000093  00000+0  00000+0 0  9997
2 63397   1.0632  81.5310 0003818 294.0276 275.9734  1.00272690  4255
TJS-17                  
1 63524U 25073A   26154.67086645 -.00000058  00000+0  00000+0 0  9999
2 63524   1.0290  82.8055 0002604 301.6214 273.7230  1.00272521  4155
TIANLIAN 2-05           
1 63662U 25084A   26155.14129454  .00000136  00000+0  00000+0 0  9999
2 63662   4.4847 279.9832 0003689 143.9727 259.9122  1.00273536  4259
TJS-19                  
1 63924U 25097A   26154.73757059 -.00000264  00000+0  00000+0 0  9999
2 63924   3.3094 317.2183 0001784 231.8983 109.9058  1.00271334  4001
CHINASAT 3B             
1 64062U 25106A   26153.67325432 -.00000033  00000+0  00000+0 0  9996
2 64062   0.0342  84.7176 0002846  22.8897 193.2201  1.00271300  3913
SXM-10                  
1 64290U 25122A   26155.23725381 -.00000005  00000+0  00000+0 0  9997
2 64290   0.0228  28.8747 0001857 350.0565 202.9979  1.00270886  3559
COSMOS 2589             
1 64467U 25131A   26154.76586953 -.00000279  00000+0  00000+0 0  9993
2 64467   0.0530  63.9284 0001603  88.0699 113.9489  1.00270027  3422
CHINASAT 9C             
1 64470U 25132A   26155.79655389 -.00000235  00000+0  00000+0 0  9994
2 64470   0.0349 261.7217 0003117 177.6099 192.8588  1.00269843  4026
MTG-S1                  
1 64723U 25143A   26155.20790095 -.00000020  00000+0  00000+0 0  9999
2 64723   0.6149 336.1165 0001211  38.2217 309.6895  1.00271575  3288
DROR 1                  
1 64784U 25148A   26155.20781428 -.00000022  00000+0  00000+0 0  9993
2 64784   0.0090 348.1561 0003101  43.3197 291.9893  1.00271715  3165
SHIYAN-29               
1 65486U 25196A   26155.08453669 -.00000261  00000+0  00000+0 0  9990
2 65486  28.8073  18.7023 0010580 170.5717 188.0637  1.00258723  2746
NUSANTARA LIMA (NUSANT*)
1 65588U 25205A   26155.37353531 -.00000345  00000+0  00000+0 0  9996
2 65588   0.0374 132.5739 0000544 325.7392  41.8300  1.00270284  2598
TJS-20                  
1 66142U 25238A   26155.62752632  .00000035  00000+0  00000+0 0  9997
2 66142   5.4982 299.6012 0004832 153.5524  88.2058  1.00272001  2208
CMS-03 (GSAT-7R)        
1 66311U 25249B   26155.43716958 -.00000065  00000+0  00000+0 0  9991
2 66311   0.0345 261.3999 0002859 141.5029  81.3454  1.00272551  2220
VIASAT-3 F2             
1 66454U 25261A   26155.62076725 -.00000221  00000+0  00000+0 0  9999
2 66454   0.0471 147.9948 0000183 316.4701 293.0766  1.00271444  2665
SHIJIAN-28 (SJ-28)      
1 66549U 25277A   26155.67530884 -.00000348  00000+0  00000+0 0  9997
2 66549   4.5711 272.3319 0000359   6.8301 333.9793  1.00270482  2027
TJS-22                  
1 66990U 25290A   26154.91162034  .00000006  00000+0  00000+0 0  9996
2 66990   1.5603 286.4140 0002037 334.0190  26.5604  1.00271403  1893
TJS-23                  
1 67226U 25306A   26154.63920536  .00000028  00000+0  00000+0 0  9999
2 67226   5.6184 297.5604 0004948 162.5965 197.5216  1.00272079  1753
FENGYUN 4C              
1 67246U 25312A   26155.02108771 -.00000311  00000+0  00000+0 0  9997
2 67246   0.0142  93.6132 0000672  66.0667 233.3855  1.00270825  1649
SHIJIAN-29A (SJ-29A)    
1 67302U 25315A   26155.21780821 -.00000056  00000+0  00000+0 0  9992
2 67302   3.3645  95.4306 0003390  18.1949 290.7217  1.00270280  1486
SHIJIAN-29B (SJ-29B)    
1 67403U 25315C   26155.00921432 -.00000057  00000+0  00000+0 0  9997
2 67403   3.3631  95.4252 0003568  19.9066 213.7607  1.00270262  1555
ELEKTRO-L 5             
1 67756U 26028A   26154.09003211 -.00000085  00000+0  00000+0 0  9995
2 67756   0.2781 307.0046 0001505 184.5313 228.4826  1.00271241  1121
JAM-E JAM 1             
1 67757U 26028B   26155.70613622  .00000168  00000+0  00000+0 0  9999
2 67757   0.2872 298.7384 0000716 302.6725 299.8534  1.00270332   999
