OBJECT_NAME,OBJECT_ID,EPOCH,MEAN_MOTION,ECCENTRICITY,INCLINATION,RA_OF_ASC_NODE,ARG_OF_PERICENTER,MEAN_ANOMALY,EPHEMERIS_TYPE,CLASSIFICATION_TYPE,NORAD_CAT_ID,ELEMENT_SET_NO,REV_AT_EPOCH,BSTAR,MEAN_MOTION_DOT,MEAN_MOTION_DDOT
NUVIEW BRAVO,2024-252D,2026-06-03T11:30:00.211968,1.00270889,.0001996,0.0753,137.8768,335.8772,227.5746,0,U,62457,999,365,0,-.203E-5,0
THURAYA-4,2025-001A,2026-06-04T05:29:38.603328,1.00272936,.00002039,0.0279,64.2599,41.4223,273.7272,0,U,62483,999,404,0,.151E-5,0
SHIJIAN-25 (SJ-25),2025-002A,2026-06-03T17:31:51.935808,1.00281646,.0051546,5.0812,61.2456,172.8146,48.3391,0,U,62485,999,522,0,-.339E-5,0
TJS-14,2025-017A,2026-06-04T03:22:57.895104,1.00269870,.00005059,0.8127,294.7099,271.6919,115.3105,0,U,62804,999,514,0,.127E-5,0
SPAINSAT NG I,2025-021A,2026-06-04T03:25:57.607968,1.00271232,.00002123,0.0167,329.7714,115.8748,247.4441,0,U,62852,999,385,0,.163E-5,0
QZS-6 (MICHIBIKI-6),2025-023A,2026-06-04T04:12:21.631104,1.00268643,.00025932,0.0196,27.3438,49.4967,329.3335,0,U,62876,999,481,0,-.22E-5,0
ZHONGXING-10R,2025-036A,2026-06-04T02:06:36.002880,1.00272552,.00033045,0.0526,254.1919,244.4420,256.0983,0,U,63075,999,482,0,-.34E-5,0
TJS-15,2025-045A,2026-06-03T17:34:36.571008,1.00270021,.0005568,0.2813,85.2729,299.9874,224.9861,0,U,63157,999,462,0,-.253E-5,0
TIANLIAN 2-04,2025-062A,2026-06-03T22:32:32.637696,1.00270749,.0031424,4.4090,274.6299,10.9091,25.0606,0,U,63361,999,447,0,-.123E-5,0
TJS-16,2025-064A,2026-06-03T15:55:16.131360,1.00272690,.0003818,1.0632,81.5310,294.0276,275.9734,0,U,63397,999,425,0,-.93E-6,0
TJS-17,2025-073A,2026-06-03T16:06:02.861280,1.00272521,.0002604,1.0290,82.8055,301.6214,273.7230,0,U,63524,999,415,0,-.58E-6,0
TIANLIAN 2-05,2025-084A,2026-06-04T03:23:27.848256,1.00273536,.00036897,4.4847,279.9832,143.9727,259.9122,0,U,63662,999,425,0,.136E-5,0
TJS-19,2025-097A,2026-06-03T17:42:06.098976,1.00271334,.0001784,3.3094,317.2183,231.8983,109.9058,0,U,63924,999,400,0,-.264E-5,0
CHINASAT 3B,2025-106A,2026-06-02T16:09:29.173248,1.00271300,.00028466,0.0342,84.7176,22.8897,193.2201,0,U,64062,999,391,0,-.33E-6,0
SXM-10,2025-122A,2026-06-04T05:41:38.729184,1.00270886,.00018571,0.0228,28.8747,350.0565,202.9979,0,U,64290,999,355,0,-.5E-7,0
COSMOS 2589,2025-131A,2026-06-03T18:22:51.127392,1.00270027,.0001603,0.0530,63.9284,88.0699,113.9489,0,U,64467,999,342,0,-.279E-5,0
CHINASAT 9C,2025-132A,2026-06-04T19:07:02.256096,1.00269843,.0003117,0.0349,261.7217,177.6099,192.8588,0,U,64470,999,402,0,-.235E-5,0
MTG-S1,2025-143A,2026-06-04T04:59:22.642080,1.00271575,.0001211,0.6149,336.1165,38.2217,309.6895,0,U,64723,999,328,0,-.2E-6,0
DROR 1,2025-148A,2026-06-04T04:59:15.153792,1.00271715,.00031011,0.0090,348.1561,43.3197,291.9893,0,U,64784,999,316,0,-.22E-6,0
SHIYAN-29,2025-196A,2026-06-04T02:01:43.970016,1.00258723,.00105806,28.8073,18.7023,170.5717,188.0637,0,U,65486,999,274,0,-.261E-5,0
NUSANTARA LIMA (NUSANTARA 5),2025-205A,2026-06-04T08:57:53.450784,1.00270284,.0000544,0.0374,132.5739,325.7392,41.8300,0,U,65588,999,259,0,-.345E-5,0
TJS-20,2025-238A,2026-06-04T15:03:38.274048,1.00272001,.0004832,5.4982,299.6012,153.5524,88.2058,0,U,66142,999,220,0,.35E-6,0
CMS-03 (GSAT-7R),2025-249B,2026-06-04T10:29:31.451712,1.00272551,.0002859,0.0345,261.3999,141.5029,81.3454,0,U,66311,999,222,0,-.65E-6,0
VIASAT-3 F2,2025-261A,2026-06-04T14:53:54.290400,1.00271444,.0000183,0.0471,147.9948,316.4701,293.0766,0,U,66454,999,266,0,-.221E-5,0
SHIJIAN-28 (SJ-28),2025-277A,2026-06-04T16:12:26.683776,1.00270482,.0000359,4.5711,272.3319,6.8301,333.9793,0,U,66549,999,202,0,-.348E-5,0
TJS-22,2025-290A,2026-06-03T21:52:43.997376,1.00271403,.0002037,1.5603,286.4140,334.0190,26.5604,0,U,66990,999,189,0,.6E-7,0
TJS-23,2025-306A,2026-06-03T15:20:27.343104,1.00272079,.0004948,5.6184,297.5604,162.5965,197.5216,0,U,67226,999,175,0,.28E-6,0
FENGYUN 4C,2025-312A,2026-06-04T00:30:21.978144,1.00270825,.00006724,0.0142,93.6132,66.0667,233.3855,0,U,67246,999,164,0,-.311E-5,0
SHIJIAN-29A (SJ-29A),2025-315A,2026-06-04T05:13:38.629344,1.00270280,.00033903,3.3645,95.4306,18.1949,290.7217,0,U,67302,999,148,0,-.56E-6,0
SHIJIAN-29B (SJ-29B),2025-315C,2026-06-04T00:13:16.117248,1.00270262,.00035688,3.3631,95.4252,19.9066,213.7607,0,U,67403,999,155,0,-.57E-6,0
ELEKTRO-L 5,2026-028A,2026-06-03T02:09:38.774304,1.00271241,.00015057,0.2781,307.0046,184.5313,228.4826,0,U,67756,999,112,0,-.85E-6,0
JAM-E JAM 1,2026-028B,2026-06-04T16:56:50.169408,1.00270332,.0000716,0.2872,298.7384,302.6725,299.8534,0,U,67757,999,99,0,.168E-5,0
